NORAD_CAT_ID,OBJECT_NAME,OBJECT_TYPE,EPOCH,MEAN_MOTION,ECCENTRICITY,INCLINATION,RA_OF_ASC_NODE,ARG_OF_PERICENTER,MEAN_ANOMALY,BSTAR,MEAN_MOTION_DOT,MEAN_MOTION_DDOT,TLE_LINE0,TLE_LINE1,TLE_LINE2,SEMIMAJOR_AXIS,PERIOD,APOGEE,PERIGEE,DECAYED
54208.0,STARLINK-5255,PAYLOAD,2023-11-10 20:50:27,15.08843182,0.0001417,53.2162,184.1624,102.7014,257.4137,0.00088427,0.00013814,0.0,0 STARLINK-5255,1 54208U 22141BD  23314.86837793  .00013814  00000-0  88427-3 0  9992,2 54208  53.2162 184.1624 0001417 102.7014 257.4137 15.08843182 58051,6917.871,95.437,540.716,538.755,0.0
54208.0,STARLINK-5255,PAYLOAD,2023-11-11 19:05:51,15.08847326,0.0001441,53.2163,180.0005,100.9748,259.1406,0.00029897,4.474e-05,0.0,0 STARLINK-5255,1 54208U 22141BD  23315.79573626  .00004474  00000-0  29897-3 0  9995,2 54208  53.2163 180.0005 0001441 100.9748 259.1406 15.08847326 58424,6917.858,95.437,540.72,538.726,0.0
54208.0,STARLINK-5255,PAYLOAD,2023-11-11 22:16:37,15.08848771,0.0001394,53.2156,179.407,101.7032,258.4116,0.00024153,3.559e-05,0.0,0 STARLINK-5255,1 54208U 22141BD  23315.92821462  .00003559  00000-0  24153-3 0  9997,2 54208  53.2156 179.4070 0001394 101.7032 258.4116 15.08848771 58214,6917.854,95.437,540.683,538.754,0.0
54208.0,STARLINK-5255,PAYLOAD,2023-11-12 07:48:56,15.08844259,0.0001391,53.2155,177.618,95.1725,264.9425,0.0001378,1.906e-05,0.0,0 STARLINK-5255,1 54208U 22141BD  23316.32565471  .00001906  00000-0  13780-3 0  9995,2 54208  53.2155 177.6180 0001391  95.1725 264.9425 15.08844259 58275,6917.867,95.437,540.695,538.77,0.0
54208.0,STARLINK-5255,PAYLOAD,2023-11-12 18:56:38,15.0884324,0.0001665,53.2153,175.5375,89.4006,270.7177,0.00013596,1.877e-05,0.0,0 STARLINK-5255,1 54208U 22141BD  23316.78933704  .00001877  00000-0  13596-3 0  9995,2 54208  53.2153 175.5375 0001665  89.4006 270.7177 15.08843240 58579,6917.87,95.437,540.887,538.584,0.0
54208.0,STARLINK-5255,PAYLOAD,2023-11-12 22:07:24,15.08841165,0.0001347,53.2146,174.9439,91.2479,268.8667,8.3416e-05,1.04e-05,0.0,0 STARLINK-5255,1 54208U 22141BD  23316.92181683  .00001040  00000-0  83416-4 0  9993,2 54208  53.2146 174.9439 0001347  91.2479 268.8667 15.08841165 58360,6917.877,95.437,540.674,538.81,0.0
54208.0,STARLINK-5255,PAYLOAD,2023-11-12 23:42:48,15.08842871,0.0001483,53.2156,174.6464,92.7804,267.3358,0.00011452,1.535e-05,0.0,0 STARLINK-5255,1 54208U 22141BD  23316.98805622  .00001535  00000-0  11452-3 0  9994,2 54208  53.2156 174.6464 0001483  92.7804 267.3358 15.08842871 58372,6917.872,95.437,540.763,538.711,0.0
54208.0,STARLINK-5255,PAYLOAD,2023-11-14 07:30:30,15.08840235,0.000154,53.216,168.6991,84.7693,275.3475,6.2453e-05,7.06e-06,0.0,0 STARLINK-5255,1 54208U 22141BD  23318.31285872  .00000706  00000-0  62453-4 0  9999,2 54208  53.2160 168.6991 0001540  84.7693 275.3475 15.08840235 58805,6917.88,95.438,540.81,538.679,0.0
54208.0,STARLINK-5255,PAYLOAD,2023-11-14 13:52:03,15.08834861,0.0001565,53.2153,167.5104,86.1842,273.9329,3.7083e-05,3.02e-06,0.0,0 STARLINK-5255,1 54208U 22141BD  23318.57782187  .00000302  00000-0  37083-4 0  9991,2 54208  53.2153 167.5104 0001565  86.1842 273.9329 15.08834861 58619,6917.896,95.438,540.844,538.678,0.0
54208.0,STARLINK-5255,PAYLOAD,2023-11-14 20:13:36,15.08838112,0.0001528,53.2153,166.3211,85.964,274.1527,9.6307e-05,1.245e-05,0.0,0 STARLINK-5255,1 54208U 22141BD  23318.84278210  .00001245  00000-0  96307-4 0  9999,2 54208  53.2153 166.3211 0001528  85.9640 274.1527 15.08838112 58657,6917.886,95.438,540.808,538.694,0.0
54208.0,STARLINK-5255,PAYLOAD,2023-11-15 13:42:50,15.08841921,0.0001555,53.2151,163.0493,89.2179,270.8991,0.00012676,1.73e-05,0.0,0 STARLINK-5255,1 54208U 22141BD  23319.57142114  .00001730  00000-0  12676-3 0  9998,2 54208  53.2151 163.0493 0001555  89.2179 270.8991 15.08841921 58767,6917.875,95.437,540.815,538.664,0.0
54208.0,STARLINK-5255,PAYLOAD,2023-11-16 19:55:10,15.0884265,0.0001597,53.2108,157.3962,93.2392,266.8783,0.00013628,1.882e-05,0.0,0 STARLINK-5255,1 54208U 22141BD  23320.82997991  .00001882  00000-0  13628-3 0  9995,2 54208  53.2108 157.3962 0001597  93.2392 266.8783 15.08842650 59185,6917.872,95.437,540.842,538.633,0.0
54208.0,STARLINK-5255,PAYLOAD,2023-11-17 13:24:24,15.08838602,0.0001382,53.2116,154.1264,90.741,269.374,4.846e-05,4.83e-06,0.0,0 STARLINK-5255,1 54208U 22141BD  23321.55862179  .00000483  00000-0  48460-4 0  9994,2 54208  53.2116 154.1264 0001382  90.7410 269.3740 15.08838602 59069,6917.885,95.438,540.706,538.794,0.0
54208.0,STARLINK-5255,PAYLOAD,2023-11-18 13:15:11,15.08838795,0.0001555,53.2108,149.664,92.9103,267.2067,2.8559e-05,1.67e-06,0.0,0 STARLINK-5255,1 54208U 22141BD  23322.55222202  .00000167  00000-0  28559-4 0  9998,2 54208  53.2108 149.6640 0001555  92.9103 267.2067 15.08838795 59211,6917.884,95.438,540.825,538.673,0.0
54208.0,STARLINK-5255,PAYLOAD,2023-11-18 19:36:44,15.08839753,0.0001519,53.2139,148.4774,88.4404,271.6762,5.954e-05,6.6e-06,0.0,0 STARLINK-5255,1 54208U 22141BD  23322.81718413  .00000660  00000-0  59540-4 0  9993,2 54208  53.2139 148.4774 0001519  88.4404 271.6762 15.08839753 59489,6917.881,95.438,540.797,538.695,0.0
54208.0,STARLINK-5255,PAYLOAD,2023-11-19 11:30:36,15.08835186,0.0001455,53.2155,145.5056,89.5588,270.557,7.153e-05,8.5e-06,0.0,0 STARLINK-5255,1 54208U 22141BD  23323.47958867  .00000850  00000-0  71530-4 0  9999,2 54208  53.2155 145.5056 0001455  89.5588 270.5570 15.08835186 59359,6917.895,95.438,540.767,538.754,0.0
54208.0,STARLINK-5255,PAYLOAD,2023-11-19 19:27:32,15.08833634,0.0001416,53.2169,144.0189,88.7936,271.3218,4.6072e-05,4.45e-06,0.0,0 STARLINK-5255,1 54208U 22141BD  23323.81079132  .00000445  00000-0  46072-4 0  9999,2 54208  53.2169 144.0189 0001416  88.7936 271.3218 15.08833634 59635,6917.9,95.438,540.744,538.785,0.0
54208.0,STARLINK-5255,PAYLOAD,2023-11-19 21:02:55,15.08832891,0.0001418,53.2169,143.7215,88.2571,271.8584,3.5206e-05,2.72e-06,0.0,0 STARLINK-5255,1 54208U 22141BD  23323.87703167  .00000272  00000-0  35206-4 0  9992,2 54208  53.2169 143.7215 0001418  88.2571 271.8584 15.08832891 59414,6917.902,95.438,540.748,538.786,0.0
54208.0,STARLINK-5255,PAYLOAD,2023-11-20 04:59:51,15.08835513,0.0001399,53.2162,142.2343,88.2929,271.8223,6.1645e-05,6.93e-06,0.0,0 STARLINK-5255,1 54208U 22141BD  23324.20823079  .00000693  00000-0  61645-4 0  9998,2 54208  53.2162 142.2343 0001399  88.2929 271.8223 15.08835513 59467,6917.894,95.438,540.727,538.791,0.0
54208.0,STARLINK-5255,PAYLOAD,2023-11-20 20:53:42,15.08841565,0.0001402,53.2163,139.2605,89.082,271.0332,9.9212e-05,1.291e-05,0.0,0 STARLINK-5255,1 54208U 22141BD  23324.87062727  .00001291  00000-0  99212-4 0  9992,2 54208  53.2163 139.2605 0001402  89.0820 271.0332 15.08841565 59567,6917.876,95.437,540.71,538.771,0.0
54208.0,STARLINK-5255,PAYLOAD,2023-11-21 12:47:33,15.08845214,0.0001372,53.2163,136.2865,89.8552,270.2597,0.00017229,2.456e-05,0.0,0 STARLINK-5255,1 54208U 22141BD  23325.53302474  .00002456  00000-0  17229-3 0  9993,2 54208  53.2163 136.2865 0001372  89.8552 270.2597 15.08845214 59668,6917.864,95.437,540.679,538.78,0.0
54208.0,STARLINK-5255,PAYLOAD,2023-11-21 19:09:05,15.08848982,0.0001394,53.2155,135.0971,88.7397,271.3755,0.00023222,3.411e-05,0.0,0 STARLINK-5255,1 54208U 22141BD  23325.79798378  .00003411  00000-0  23222-3 0  9995,2 54208  53.2155 135.0971 0001394  88.7397 271.3755 15.08848982 59701,6917.853,95.437,540.682,538.754,0.0
54208.0,STARLINK-5255,PAYLOAD,2023-11-22 11:02:57,15.08846641,0.0001431,53.2154,132.1233,88.3476,271.768,0.0001465,2.045e-05,0.0,0 STARLINK-5255,1 54208U 22141BD  23326.46038401  .00002045  00000-0  14650-3 0  9991,2 54208  53.2154 132.1233 0001431  88.3476 271.7680 15.08846641 60034,6917.86,95.437,540.715,538.735,0.0
54208.0,STARLINK-5255,PAYLOAD,2023-11-22 17:24:29,15.08849308,0.0001462,53.2155,130.934,88.121,271.995,0.00015106,2.118e-05,0.0,0 STARLINK-5255,1 54208U 22141BD  23326.72534184  .00002118  00000-0  15106-3 0  9997,2 54208  53.2155 130.9340 0001462  88.1210 271.9950 15.08849308 59840,6917.852,95.437,540.728,538.706,0.0
54208.0,STARLINK-5255,PAYLOAD,2023-11-23 14:04:32,15.08815158,0.0001583,53.2162,127.0689,90.7851,269.3323,-0.00026456,-4.493e-05,0.0,0 STARLINK-5255,1 54208U 22141BD  23327.58648943 -.00004493  00000-0 -26456-3 0  9991,2 54208  53.2162 127.0689 0001583  90.7851 269.3323 15.08815158 59970,6917.956,95.439,540.916,538.726,0.0
54208.0,STARLINK-5255,PAYLOAD,2023-11-23 17:15:18,15.08834659,0.0001625,53.2162,126.4743,99.5598,260.5578,6.22e-05,7.02e-06,0.0,0 STARLINK-5255,1 54208U 22141BD  23327.71896296  .00000702  00000-0  62200-4 0  9997,2 54208  53.2162 126.4743 0001625  99.5598 260.5578 15.08834659 60228,6917.897,95.438,540.886,538.638,0.0
54208.0,STARLINK-5255,PAYLOAD,2023-11-23 20:26:04,15.08835309,0.0001626,53.2156,125.8784,99.3148,260.8028,8.1505e-05,1.009e-05,0.0,0 STARLINK-5255,1 54208U 22141BD  23327.85144315  .00001009  00000-0  81505-4 0  9990,2 54208  53.2156 125.8784 0001626  99.3148 260.8028 15.08835309 60012,6917.895,95.438,540.885,538.635,0.0
54208.0,STARLINK-5255,PAYLOAD,2023-11-24 10:44:32,15.08850036,0.0002188,53.2167,123.1993,108.3081,251.815,0.00031912,4.796e-05,0.0,0 STARLINK-5255,1 54208U 22141BD  23328.44759748  .00004796  00000-0  31912-3 0  9990,2 54208  53.2167 123.1993 0002188 108.3081 251.8150 15.08850036 60333,6917.85,95.437,541.228,538.201,0.0
54208.0,STARLINK-5255,PAYLOAD,2023-11-24 13:55:18,15.08854197,0.0001784,53.2161,122.6057,103.6524,256.4667,0.00062967,9.751e-05,0.0,0 STARLINK-5255,1 54208U 22141BD  23328.58007952  .00009751  00000-0  62967-3 0  9998,2 54208  53.2161 122.6057 0001784 103.6524 256.4667 15.08854197 60126,6917.837,95.437,540.936,538.468,0.0
54208.0,STARLINK-5255,PAYLOAD,2023-11-24 17:06:05,15.08868924,0.0001665,53.2159,122.0103,99.9168,260.2012,0.0012227,0.0001924,0.0,0 STARLINK-5255,1 54208U 22141BD  23328.71256098  .00019240  00000-0  12227-2 0  9997,2 54208  53.2159 122.0103 0001665  99.9168 260.2012 15.08868924 60140,6917.792,95.436,540.809,538.505,0.0
